[{"OBJECT_NAME":"STARLINK-32284","OBJECT_ID":"2024-158R","EPOCH":"2026-03-09T09:16:18.562944","MEAN_MOTION":15.30206996,"ECCENTRICITY":0.0001286,"INCLINATION":53.1607,"RA_OF_ASC_NODE":67.0254,"ARG_OF_PERICENTER":90.1421,"MEAN_ANOMALY":269.9727,"EPHEMERIS_TYPE":0,"CLASSIFICATION_TYPE":"U","NORAD_CAT_ID":61005,"ELEMENT_SET_NO":999,"REV_AT_EPOCH":8553,"BSTAR":7.9951044e-5,"MEAN_MOTION_DOT":2.01e-5,"MEAN_MOTION_DDOT":0},{"OBJECT_NAME":"TEVEL2-5","OBJECT_ID":"2025-052E","EPOCH":"2026-03-09T23:11:54.246048","MEAN_MOTION":15.30817434,"ECCENTRICITY":0.00047002,"INCLINATION":97.4013,"RA_OF_ASC_NODE":325.3677,"ARG_OF_PERICENTER":95.3936,"MEAN_ANOMALY":264.7842,"EPHEMERIS_TYPE":0,"CLASSIFICATION_TYPE":"U","NORAD_CAT_ID":63214,"ELEMENT_SET_NO":999,"REV_AT_EPOCH":5491,"BSTAR":0.00071764727,"MEAN_MOTION_DOT":0.00021339,"MEAN_MOTION_DDOT":0}]
